RCM-1                   
1 44322U 19033A   26199.86623964  .00000440  00000+0  48223-4 0  9992
2 44322  97.7604 206.8659 0001512  92.9107  26.0085 14.92590107386807
RCM-3                   
1 44323U 19033B   26199.86672708 -.00000284  00000+0 -22161-4 0  9994
2 44323  97.7602 206.9606 0001512  92.6291 267.5102 14.92588344386824
RCM-2                   
1 44324U 19033C   26199.82189679  .00000399  00000+0  44194-4 0  9996
2 44324  97.7605 206.8669 0001535  91.9207 268.2188 14.92589636386805
