{"fetched_at":"2026-07-19T07:05:32.148Z","source":"https://celestrak.org/NORAD/elements/gp.php?NAME=RCM&FORMAT=JSON","constellation":"rcm","records":[{"OBJECT_NAME":"RCM-1","OBJECT_ID":"2019-033A","EPOCH":"2026-07-18T20:47:23.104896","CLASSIFICATION_TYPE":"U","MEAN_MOTION":14.92590107,"ECCENTRICITY":0.0001512,"INCLINATION":97.7604,"RA_OF_ASC_NODE":206.8659,"ARG_OF_PERICENTER":92.9107,"MEAN_ANOMALY":26.0085,"EPHEMERIS_TYPE":0,"NORAD_CAT_ID":44322,"ELEMENT_SET_NO":999,"REV_AT_EPOCH":38680,"BSTAR":0.000048223,"MEAN_MOTION_DOT":0.0000044,"MEAN_MOTION_DDOT":0},{"OBJECT_NAME":"RCM-3","OBJECT_ID":"2019-033B","EPOCH":"2026-07-18T20:48:05.219712","CLASSIFICATION_TYPE":"U","MEAN_MOTION":14.92588344,"ECCENTRICITY":0.0001512,"INCLINATION":97.7602,"RA_OF_ASC_NODE":206.9606,"ARG_OF_PERICENTER":92.6291,"MEAN_ANOMALY":267.5102,"EPHEMERIS_TYPE":0,"NORAD_CAT_ID":44323,"ELEMENT_SET_NO":999,"REV_AT_EPOCH":38682,"BSTAR":-0.000022161,"MEAN_MOTION_DOT":-0.00000284,"MEAN_MOTION_DDOT":0},{"OBJECT_NAME":"RCM-2","OBJECT_ID":"2019-033C","EPOCH":"2026-07-18T19:43:31.882656","CLASSIFICATION_TYPE":"U","MEAN_MOTION":14.92589636,"ECCENTRICITY":0.0001535,"INCLINATION":97.7605,"RA_OF_ASC_NODE":206.8669,"ARG_OF_PERICENTER":91.9207,"MEAN_ANOMALY":268.2188,"EPHEMERIS_TYPE":0,"NORAD_CAT_ID":44324,"ELEMENT_SET_NO":999,"REV_AT_EPOCH":38680,"BSTAR":0.000044194,"MEAN_MOTION_DOT":0.00000399,"MEAN_MOTION_DDOT":0}]}
